OBJECT_NAME,OBJECT_ID,EPOCH,MEAN_MOTION,ECCENTRICITY,INCLINATION,RA_OF_ASC_NODE,ARG_OF_PERICENTER,MEAN_ANOMALY,EPHEMERIS_TYPE,CLASSIFICATION_TYPE,NORAD_CAT_ID,ELEMENT_SET_NO,REV_AT_EPOCH,BSTAR,MEAN_MOTION_DOT,MEAN_MOTION_DDOT
ONEWEB-0068,2020-020Y,2026-06-15T13:13:34.852512,13.11418567,.00017478,87.8900,21.3897,78.9294,281.2031,0,U,45446,999,30238,-.14362307E-2,-.496E-5,0
ONEWEB-0046,2020-020Z,2026-06-15T14:51:26.015040,13.11414912,.00020012,87.8889,21.3817,79.4038,280.7315,0,U,45447,999,30240,-.1358099E-2,-.469E-5,0
ONEWEB-0063,2020-020AA,2026-06-15T13:43:16.593312,13.11421041,.00021313,87.8897,21.3901,85.5391,274.5981,0,U,45448,999,30248,.86070942E-3,.318E-5,0
ONEWEB-0019,2020-020AB,2026-06-15T14:39:02.455776,13.11414847,.00017172,87.8889,21.3689,89.5502,270.5823,0,U,45449,999,30233,-.42917885E-3,-.139E-5,0
ONEWEB-0094,2020-020AC,2026-06-15T14:35:54.695616,13.17647177,.00016255,87.9143,6.1631,85.7702,274.3615,0,U,45450,999,30610,.1151205E-3,.58E-6,0
ONEWEB-0087,2020-020AD,2026-06-15T13:57:32.781888,13.11418569,.00016806,87.8906,21.3621,75.8075,284.3240,0,U,45451,999,30237,.17194607E-2,.622E-5,0
ONEWEB-0082,2020-020AE,2026-06-15T13:52:40.544256,13.11419144,.00018663,87.8898,21.3795,69.7884,290.3444,0,U,45452,999,30246,.14589612E-2,.53E-5,0
ONEWEB-0050,2020-020AF,2026-06-15T14:21:24.584544,14.90376062,.00033964,88.9300,233.4265,30.5230,329.6196,0,U,45453,999,34014,.21743105E-3,.2136E-4,0
ONEWEB-0034,2020-020AG,2026-06-15T14:46:45.476832,13.11417579,.00017929,87.8895,21.3813,85.0700,275.0633,0,U,45454,999,30238,-.32074119E-2,-.1124E-4,0
ONEWEB-0060,2020-020AH,2026-06-15T13:41:51.632736,13.11420002,.00013472,87.8890,21.3884,51.0795,309.0453,0,U,45455,999,30233,.74968836E-3,.278E-5,0
ONEWEB-0086,2020-020AJ,2026-06-15T13:11:08.403648,13.11416099,.00010323,87.8897,21.3878,80.6433,279.4812,0,U,45456,999,30239,-.12702907E-2,-.438E-5,0
ONEWEB-0088,2020-020AK,2026-06-15T14:29:28.483296,13.11416161,.00021716,87.8904,21.3498,80.1096,280.0277,0,U,45457,999,30233,.21254534E-3,.88E-6,0
ONEWEB-0102,2020-100A,2026-06-15T12:47:28.785984,13.12441445,.00015922,87.8938,351.0041,96.9009,263.2301,0,U,47258,999,26451,-.69891691E-3,-.239E-5,0
ONEWEB-0109,2020-100B,2026-06-15T12:59:40.725312,13.12443231,.0001841,87.8948,350.9861,95.5189,264.6150,0,U,47259,999,26434,-.15341173E-2,-.539E-5,0
ONEWEB-0110,2020-100C,2026-06-15T13:38:43.256544,13.12445252,.00015387,87.8949,350.9650,88.5752,271.5553,0,U,47260,999,26451,.95247624E-3,.355E-5,0
ONEWEB-0111,2020-100D,2026-06-15T12:32:50.796096,13.12440524,.00017607,87.8948,350.9924,87.4191,272.7139,0,U,47261,999,26434,-.11180191E-3,-.28E-6,0
ONEWEB-0114,2020-100E,2026-06-15T13:16:45.321312,13.12445392,.00020075,87.8949,350.9840,95.9112,264.2245,0,U,47262,999,26430,-.38803976E-3,-.127E-5,0
ONEWEB-0117,2020-100F,2026-06-15T13:04:33.879648,13.12444360,.00017563,87.8945,350.9765,90.1871,269.9459,0,U,47263,999,26431,-.126801E-2,-.443E-5,0
ONEWEB-0118,2020-100G,2026-06-15T12:03:35.172288,13.12442949,.00021286,87.8947,350.9877,91.8533,268.2840,0,U,47264,999,26450,.12199456E-2,.452E-5,0
ONEWEB-0119,2020-100H,2026-06-15T12:40:10.413120,13.12442485,.00018,87.8937,350.9993,90.8420,269.2915,0,U,47265,999,26448,-.48216089E-3,-.161E-5,0
ONEWEB-0120,2020-100J,2026-06-15T13:14:31.536096,13.12445074,.00018427,87.8937,350.9960,96.3901,263.7437,0,U,47266,999,26451,-.51500617E-3,-.173E-5,0
ONEWEB-0121,2020-100K,2026-06-15T12:57:14.539968,13.12443807,.00017309,87.8948,350.9843,80.4465,279.6859,0,U,47267,999,26442,-.11923397E-2,-.416E-5,0
ONEWEB-0122,2020-100L,2026-06-15T12:48:43.126272,13.12442973,.00017096,87.8950,350.9896,95.1634,264.9689,0,U,47268,999,26433,-.98092708E-3,-.34E-5,0
ONEWEB-0123,2020-100M,2026-06-15T12:42:36.465408,13.12443419,.00019193,87.8937,350.9980,90.3688,269.7661,0,U,47269,999,26447,-.61472147E-3,-.208E-5,0
ONEWEB-0124,2020-100N,2026-06-15T12:27:58.473792,13.12443136,.0001782,87.8936,351.0033,87.0108,273.1224,0,U,47270,999,26435,.24081576E-3,.99E-6,0
ONEWEB-0125,2020-100P,2026-06-15T13:46:02.181504,13.12444966,.00019764,87.8948,350.9756,82.0770,278.0583,0,U,47271,999,26442,.12083354E-2,.447E-5,0
ONEWEB-0126,2020-100Q,2026-06-15T14:15:31.846176,13.12441794,.00018528,87.8941,350.9874,94.1063,266.0277,0,U,47272,999,26449,.42350006E-3,.165E-5,0
ONEWEB-0127,2020-100R,2026-06-15T13:26:31.025184,13.12445294,.0001818,87.8936,350.9931,94.9001,265.2335,0,U,47273,999,26451,.23899736E-3,.99E-6,0
ONEWEB-0128,2020-100S,2026-06-15T12:08:27.554208,13.12442940,.00014934,87.8935,351.0177,87.5844,272.5455,0,U,47274,999,26452,.12425434E-2,.46E-5,0
ONEWEB-0129,2020-100T,2026-06-15T13:28:58.067616,13.12444369,.00023622,87.8947,350.9802,118.4793,241.6573,0,U,47275,999,26446,.38521301E-3,.151E-5,0
