ONEWEB-0068             
1 45446U 20020Y   26166.55109783 -.00000496  00000+0 -14362-2 0  9994
2 45446  87.8900  21.3897 0001747  78.9294 281.2031 13.11418567302385
ONEWEB-0046             
1 45447U 20020Z   26166.61905110 -.00000469  00000+0 -13581-2 0  9992
2 45447  87.8889  21.3817 0002001  79.4038 280.7315 13.11414912302402
ONEWEB-0063             
1 45448U 20020AA  26166.57171983  .00000318  00000+0  86071-3 0  9997
2 45448  87.8897  21.3901 0002131  85.5391 274.5981 13.11421041302489
ONEWEB-0019             
1 45449U 20020AB  26166.61044509 -.00000139  00000+0 -42918-3 0  9991
2 45449  87.8889  21.3689 0001717  89.5502 270.5823 13.11414847302332
ONEWEB-0094             
1 45450U 20020AC  26166.60827194  .00000058  00000+0  11512-3 0  9995
2 45450  87.9143   6.1631 0001625  85.7702 274.3615 13.17647177306104
ONEWEB-0087             
1 45451U 20020AD  26166.58162942  .00000622  00000+0  17195-2 0  9995
2 45451  87.8906  21.3621 0001680  75.8075 284.3240 13.11418569302378
ONEWEB-0082             
1 45452U 20020AE  26166.57824704  .00000530  00000+0  14590-2 0  9990
2 45452  87.8898  21.3795 0001866  69.7884 290.3444 13.11419144302460
ONEWEB-0050             
1 45453U 20020AF  26166.59820121  .00002136  00000+0  21743-3 0  9995
2 45453  88.9300 233.4265 0003396  30.5230 329.6196 14.90376062340146
ONEWEB-0034             
1 45454U 20020AG  26166.61580413 -.00001124  00000+0 -32074-2 0  9992
2 45454  87.8895  21.3813 0001792  85.0700 275.0633 13.11417579302387
ONEWEB-0060             
1 45455U 20020AH  26166.57073649  .00000278  00000+0  74969-3 0  9993
2 45455  87.8890  21.3884 0001347  51.0795 309.0453 13.11420002302332
ONEWEB-0086             
1 45456U 20020AJ  26166.54940282 -.00000438  00000+0 -12703-2 0  9994
2 45456  87.8897  21.3878 0001032  80.6433 279.4812 13.11416099302397
ONEWEB-0088             
1 45457U 20020AK  26166.60380189  .00000088  00000+0  21255-3 0  9998
2 45457  87.8904  21.3498 0002171  80.1096 280.0277 13.11416161302337
ONEWEB-0102             
1 47258U 20100A   26166.53297206 -.00000239  00000+0 -69892-3 0  9996
2 47258  87.8938 351.0041 0001592  96.9009 263.2301 13.12441445264519
ONEWEB-0109             
1 47259U 20100B   26166.54144358 -.00000539  00000+0 -15341-2 0  9999
2 47259  87.8948 350.9861 0001841  95.5189 264.6150 13.12443231264343
ONEWEB-0110             
1 47260U 20100C   26166.56855621  .00000355  00000+0  95248-3 0  9994
2 47260  87.8949 350.9650 0001538  88.5752 271.5553 13.12445252264511
ONEWEB-0111             
1 47261U 20100D   26166.52281014 -.00000028  00000+0 -11180-3 0  9992
2 47261  87.8948 350.9924 0001760  87.4191 272.7139 13.12440524264348
ONEWEB-0114             
1 47262U 20100E   26166.55330233 -.00000127  00000+0 -38804-3 0  9996
2 47262  87.8949 350.9840 0002007  95.9112 264.2245 13.12445392264307
ONEWEB-0117             
1 47263U 20100F   26166.54483657 -.00000443  00000+0 -12680-2 0  9999
2 47263  87.8945 350.9765 0001756  90.1871 269.9459 13.12444360264313
ONEWEB-0118             
1 47264U 20100G   26166.50249042  .00000452  00000+0  12199-2 0  9997
2 47264  87.8947 350.9877 0002128  91.8533 268.2840 13.12442949264505
ONEWEB-0119             
1 47265U 20100H   26166.52789830 -.00000161  00000+0 -48216-3 0  9993
2 47265  87.8937 350.9993 0001800  90.8420 269.2915 13.12442485264480
ONEWEB-0120             
1 47266U 20100J   26166.55175389 -.00000173  00000+0 -51501-3 0  9999
2 47266  87.8937 350.9960 0001842  96.3901 263.7437 13.12445074264515
ONEWEB-0121             
1 47267U 20100K   26166.53975162 -.00000416  00000+0 -11923-2 0  9998
2 47267  87.8948 350.9843 0001730  80.4465 279.6859 13.12443807264429
ONEWEB-0122             
1 47268U 20100L   26166.53383248 -.00000340  00000+0 -98093-3 0  9997
2 47268  87.8950 350.9896 0001709  95.1634 264.9689 13.12442973264339
ONEWEB-0123             
1 47269U 20100M   26166.52958872 -.00000208  00000+0 -61472-3 0  9992
2 47269  87.8937 350.9980 0001919  90.3688 269.7661 13.12443419264472
ONEWEB-0124             
1 47270U 20100N   26166.51942678  .00000099  00000+0  24082-3 0  9992
2 47270  87.8936 351.0033 0001782  87.0108 273.1224 13.12443136264359
ONEWEB-0125             
1 47271U 20100P   26166.57363636  .00000447  00000+0  12083-2 0  9994
2 47271  87.8948 350.9756 0001976  82.0770 278.0583 13.12444966264420
ONEWEB-0126             
1 47272U 20100Q   26166.59411859  .00000165  00000+0  42350-3 0  9996
2 47272  87.8941 350.9874 0001852  94.1063 266.0277 13.12441794264497
ONEWEB-0127             
1 47273U 20100R   26166.56008131  .00000099  00000+0  23900-3 0  9995
2 47273  87.8936 350.9931 0001818  94.9001 265.2335 13.12445294264516
ONEWEB-0128             
1 47274U 20100S   26166.50587447  .00000460  00000+0  12425-2 0  9993
2 47274  87.8935 351.0177 0001493  87.5844 272.5455 13.12442940264522
ONEWEB-0129             
1 47275U 20100T   26166.56178319  .00000151  00000+0  38521-3 0  9997
2 47275  87.8947 350.9802 0002362 118.4793 241.6573 13.12444369264460
